sat00271
1 00271U 62010A   20046.63483805 -.00000015  00000-0 -37515-2 0  9999
2 00271  86.6526 292.2644 0331259 350.6480   8.8360  9.41308937988063
